STARLINK-2565           
1 48280U 21036E   26052.50985272  .00000166  00000+0  30037-4 0  9996
2 48280  53.0561 169.2514 0001347  70.1874 289.9260 15.06397276265661
STARLINK-2558           
1 48282U 21036G   26052.49998450  .00003747  00000+0  13856-3 0  9995
2 48282  53.1568 150.5754 0001347  96.1569 263.9585 15.30198606265934
STARLINK-2516           
1 48283U 21036H   26052.62640635  .00005512  00000+0  19813-3 0  9991
2 48283  53.1575 149.9827 0001324  83.6018 276.5134 15.30191630265953
STARLINK-2564           
1 48284U 21036J   26052.53270565  .00001720  00000+0  70181-4 0  9996
2 48284  53.1602 150.8214 0001584  83.3546 276.7635 15.30198978265924
STARLINK-2547           
1 48286U 21036L   26052.49156983  .00002669  00000+0  10219-3 0  9998
2 48286  53.1599 150.6918 0001153  87.6547 272.4585 15.30198527265927
STARLINK-2566           
1 48287U 21036M   26052.58335648  .00041816  00000+0  14196-2 0  9990
2 48287  53.1575 152.6424 0001114  84.1084 204.0031 15.30119024  5824
STARLINK-2545           
1 48289U 21036P   26052.58335648  .00006286  00000+0  22432-3 0  9997
2 48289  53.1571 150.4904 0001313  89.3627 346.7596 15.30177782  5827
STARLINK-2555           
1 48291U 21036R   26052.58335648  .00005130  00000+0  18997-3 0  9998
2 48291  53.1539 152.5740 0001205  83.1040 323.1063 15.29356898  5830
STARLINK-2542           
1 48292U 21036S   26052.51682132  .00000580  00000+0  31720-4 0  9999
2 48292  53.1637 150.3957 0001738 109.7379 250.3809 15.30198689265939
STARLINK-2550           
1 48293U 21036T   26052.52843859 -.00001632  00000+0 -42997-4 0  9995
2 48293  53.1620 150.4738 0001520  79.5093 280.6079 15.30193140265938
STARLINK-2533           
1 48294U 21036U   26052.44518901  .00000030  00000+0  13144-4 0  9995
2 48294  53.1595 150.7194 0001379  76.6148 283.5007 15.30195377265926
STARLINK-2535           
1 48295U 21036V   26052.53476658 -.00003287  00000+0 -98881-4 0  9998
2 48295  53.1620 150.5777 0001570 130.6441 229.4697 15.30201660265939
STARLINK-2559           
1 48298U 21036Y   26052.51263324  .00001130  00000+0  50267-4 0  9992
2 48298  53.1577 150.5698 0001411  98.4514 261.6647 15.30198723265939
STARLINK-2557           
1 48299U 21036Z   26052.50314540  .00000592  00000+0  32104-4 0  9990
2 48299  53.1611 150.5571 0001410  90.9990 269.1172 15.30196263265936
STARLINK-2538           
1 48300U 21036AA  26052.58335648  .01101391  00000+0  38479-1 0  9991
2 48300  53.1423 162.9559 0001279  64.7066 336.1758 15.26532466  5682
STARLINK-2537           
1 48301U 21036AB  26052.60429776 -.00000829  00000+0 -36774-4 0  9995
2 48301  53.0543 163.8297 0001531  59.8695 300.2446 15.06402455265741
