[{"OBJECT_NAME":"STARLINK-2565","OBJECT_ID":"2021-036E","EPOCH":"2026-02-21T12:14:11.275008","MEAN_MOTION":15.06397276,"ECCENTRICITY":0.00013476,"INCLINATION":53.0561,"RA_OF_ASC_NODE":169.2514,"ARG_OF_PERICENTER":70.1874,"MEAN_ANOMALY":289.926,"EPHEMERIS_TYPE":0,"CLASSIFICATION_TYPE":"U","NORAD_CAT_ID":48280,"ELEMENT_SET_NO":999,"REV_AT_EPOCH":26566,"BSTAR":3.0036985e-5,"MEAN_MOTION_DOT":1.66e-6,"MEAN_MOTION_DDOT":0},{"OBJECT_NAME":"STARLINK-2558","OBJECT_ID":"2021-036G","EPOCH":"2026-02-21T11:59:58.660800","MEAN_MOTION":15.30198606,"ECCENTRICITY":0.00013479,"INCLINATION":53.1568,"RA_OF_ASC_NODE":150.5754,"ARG_OF_PERICENTER":96.1569,"MEAN_ANOMALY":263.9585,"EPHEMERIS_TYPE":0,"CLASSIFICATION_TYPE":"U","NORAD_CAT_ID":48282,"ELEMENT_SET_NO":999,"REV_AT_EPOCH":26593,"BSTAR":0.00013856351,"MEAN_MOTION_DOT":3.747e-5,"MEAN_MOTION_DDOT":0},{"OBJECT_NAME":"STARLINK-2516","OBJECT_ID":"2021-036H","EPOCH":"2026-02-21T15:02:01.508640","MEAN_MOTION":15.3019163,"ECCENTRICITY":0.00013242,"INCLINATION":53.1575,"RA_OF_ASC_NODE":149.9827,"ARG_OF_PERICENTER":83.6018,"MEAN_ANOMALY":276.5134,"EPHEMERIS_TYPE":0,"CLASSIFICATION_TYPE":"U","NORAD_CAT_ID":48283,"ELEMENT_SET_NO":999,"REV_AT_EPOCH":26595,"BSTAR":0.00019813362,"MEAN_MOTION_DOT":5.512e-5,"MEAN_MOTION_DDOT":0},{"OBJECT_NAME":"STARLINK-2564","OBJECT_ID":"2021-036J","EPOCH":"2026-02-21T12:47:05.768160","MEAN_MOTION":15.30198978,"ECCENTRICITY":0.00015845,"INCLINATION":53.1602,"RA_OF_ASC_NODE":150.8214,"ARG_OF_PERICENTER":83.3546,"MEAN_ANOMALY":276.7635,"EPHEMERIS_TYPE":0,"CLASSIFICATION_TYPE":"U","NORAD_CAT_ID":48284,"ELEMENT_SET_NO":999,"REV_AT_EPOCH":26592,"BSTAR":7.0180881e-5,"MEAN_MOTION_DOT":1.72e-5,"MEAN_MOTION_DDOT":0},{"OBJECT_NAME":"STARLINK-2547","OBJECT_ID":"2021-036L","EPOCH":"2026-02-21T11:47:51.633312","MEAN_MOTION":15.30198527,"ECCENTRICITY":0.00011536,"INCLINATION":53.1599,"RA_OF_ASC_NODE":150.6918,"ARG_OF_PERICENTER":87.6547,"MEAN_ANOMALY":272.4585,"EPHEMERIS_TYPE":0,"CLASSIFICATION_TYPE":"U","NORAD_CAT_ID":48286,"ELEMENT_SET_NO":999,"REV_AT_EPOCH":26592,"BSTAR":0.00010219427,"MEAN_MOTION_DOT":2.669e-5,"MEAN_MOTION_DDOT":0},{"OBJECT_NAME":"STARLINK-2566","OBJECT_ID":"2021-036M","EPOCH":"2026-02-21T14:00:01.999872","MEAN_MOTION":15.30119024,"ECCENTRICITY":0.00011144,"INCLINATION":53.1575,"RA_OF_ASC_NODE":152.6424,"ARG_OF_PERICENTER":84.1084,"MEAN_ANOMALY":204.0031,"EPHEMERIS_TYPE":0,"CLASSIFICATION_TYPE":"U","NORAD_CAT_ID":48287,"ELEMENT_SET_NO":999,"REV_AT_EPOCH":582,"BSTAR":0.0014195901,"MEAN_MOTION_DOT":0.00041816,"MEAN_MOTION_DDOT":0},{"OBJECT_NAME":"STARLINK-2545","OBJECT_ID":"2021-036P","EPOCH":"2026-02-21T14:00:01.999872","MEAN_MOTION":15.30177782,"ECCENTRICITY":0.00013136,"INCLINATION":53.1571,"RA_OF_ASC_NODE":150.4904,"ARG_OF_PERICENTER":89.3627,"MEAN_ANOMALY":346.7596,"EPHEMERIS_TYPE":0,"CLASSIFICATION_TYPE":"U","NORAD_CAT_ID":48289,"ELEMENT_SET_NO":999,"REV_AT_EPOCH":582,"BSTAR":0.000224322,"MEAN_MOTION_DOT":6.286e-5,"MEAN_MOTION_DDOT":0},{"OBJECT_NAME":"STARLINK-2555","OBJECT_ID":"2021-036R","EPOCH":"2026-02-21T14:00:01.999872","MEAN_MOTION":15.29356898,"ECCENTRICITY":0.00012056,"INCLINATION":53.1539,"RA_OF_ASC_NODE":152.574,"ARG_OF_PERICENTER":83.104,"MEAN_ANOMALY":323.1063,"EPHEMERIS_TYPE":0,"CLASSIFICATION_TYPE":"U","NORAD_CAT_ID":48291,"ELEMENT_SET_NO":999,"REV_AT_EPOCH":583,"BSTAR":0.00018996627,"MEAN_MOTION_DOT":5.13e-5,"MEAN_MOTION_DDOT":0},{"OBJECT_NAME":"STARLINK-2542","OBJECT_ID":"2021-036S","EPOCH":"2026-02-21T12:24:13.362048","MEAN_MOTION":15.30198689,"ECCENTRICITY":0.00017383,"INCLINATION":53.1637,"RA_OF_ASC_NODE":150.3957,"ARG_OF_PERICENTER":109.7379,"MEAN_ANOMALY":250.3809,"EPHEMERIS_TYPE":0,"CLASSIFICATION_TYPE":"U","NORAD_CAT_ID":48292,"ELEMENT_SET_NO":999,"REV_AT_EPOCH":26593,"BSTAR":3.1720179e-5,"MEAN_MOTION_DOT":5.8e-6,"MEAN_MOTION_DDOT":0},{"OBJECT_NAME":"STARLINK-2550","OBJECT_ID":"2021-036T","EPOCH":"2026-02-21T12:40:57.094176","MEAN_MOTION":15.3019314,"ECCENTRICITY":0.00015208,"INCLINATION":53.162,"RA_OF_ASC_NODE":150.4738,"ARG_OF_PERICENTER":79.5093,"MEAN_ANOMALY":280.6079,"EPHEMERIS_TYPE":0,"CLASSIFICATION_TYPE":"U","NORAD_CAT_ID":48293,"ELEMENT_SET_NO":999,"REV_AT_EPOCH":26593,"BSTAR":-4.2997437e-5,"MEAN_MOTION_DOT":-1.632e-5,"MEAN_MOTION_DDOT":0},{"OBJECT_NAME":"STARLINK-2533","OBJECT_ID":"2021-036U","EPOCH":"2026-02-21T10:41:04.330464","MEAN_MOTION":15.30195377,"ECCENTRICITY":0.0001379,"INCLINATION":53.1595,"RA_OF_ASC_NODE":150.7194,"ARG_OF_PERICENTER":76.6148,"MEAN_ANOMALY":283.5007,"EPHEMERIS_TYPE":0,"CLASSIFICATION_TYPE":"U","NORAD_CAT_ID":48294,"ELEMENT_SET_NO":999,"REV_AT_EPOCH":26592,"BSTAR":1.314424e-5,"MEAN_MOTION_DOT":3.0e-7,"MEAN_MOTION_DDOT":0},{"OBJECT_NAME":"STARLINK-2535","OBJECT_ID":"2021-036V","EPOCH":"2026-02-21T12:50:03.832512","MEAN_MOTION":15.3020166,"ECCENTRICITY":0.00015701,"INCLINATION":53.162,"RA_OF_ASC_NODE":150.5777,"ARG_OF_PERICENTER":130.6441,"MEAN_ANOMALY":229.4697,"EPHEMERIS_TYPE":0,"CLASSIFICATION_TYPE":"U","NORAD_CAT_ID":48295,"ELEMENT_SET_NO":999,"REV_AT_EPOCH":26593,"BSTAR":-9.8880825e-5,"MEAN_MOTION_DOT":-3.287e-5,"MEAN_MOTION_DDOT":0},{"OBJECT_NAME":"STARLINK-2559","OBJECT_ID":"2021-036Y","EPOCH":"2026-02-21T12:18:11.511936","MEAN_MOTION":15.30198723,"ECCENTRICITY":0.0001411,"INCLINATION":53.1577,"RA_OF_ASC_NODE":150.5698,"ARG_OF_PERICENTER":98.4514,"MEAN_ANOMALY":261.6647,"EPHEMERIS_TYPE":0,"CLASSIFICATION_TYPE":"U","NORAD_CAT_ID":48298,"ELEMENT_SET_NO":999,"REV_AT_EPOCH":26593,"BSTAR":5.0267432e-5,"MEAN_MOTION_DOT":1.13e-5,"MEAN_MOTION_DDOT":0},{"OBJECT_NAME":"STARLINK-2557","OBJECT_ID":"2021-036Z","EPOCH":"2026-02-21T12:04:31.762560","MEAN_MOTION":15.30196263,"ECCENTRICITY":0.00014101,"INCLINATION":53.1611,"RA_OF_ASC_NODE":150.5571,"ARG_OF_PERICENTER":90.999,"MEAN_ANOMALY":269.1172,"EPHEMERIS_TYPE":0,"CLASSIFICATION_TYPE":"U","NORAD_CAT_ID":48299,"ELEMENT_SET_NO":999,"REV_AT_EPOCH":26593,"BSTAR":3.2104007e-5,"MEAN_MOTION_DOT":5.92e-6,"MEAN_MOTION_DDOT":0},{"OBJECT_NAME":"STARLINK-2538","OBJECT_ID":"2021-036AA","EPOCH":"2026-02-21T14:00:01.999872","MEAN_MOTION":15.26532466,"ECCENTRICITY":0.00012798,"INCLINATION":53.1423,"RA_OF_ASC_NODE":162.9559,"ARG_OF_PERICENTER":64.7066,"MEAN_ANOMALY":336.1758,"EPHEMERIS_TYPE":0,"CLASSIFICATION_TYPE":"U","NORAD_CAT_ID":48300,"ELEMENT_SET_NO":999,"REV_AT_EPOCH":568,"BSTAR":0.038479127,"MEAN_MOTION_DOT":0.01101391,"MEAN_MOTION_DDOT":0},{"OBJECT_NAME":"STARLINK-2537","OBJECT_ID":"2021-036AB","EPOCH":"2026-02-21T14:30:11.326464","MEAN_MOTION":15.06402455,"ECCENTRICITY":0.00015312,"INCLINATION":53.0543,"RA_OF_ASC_NODE":163.8297,"ARG_OF_PERICENTER":59.8695,"MEAN_ANOMALY":300.2446,"EPHEMERIS_TYPE":0,"CLASSIFICATION_TYPE":"U","NORAD_CAT_ID":48301,"ELEMENT_SET_NO":999,"REV_AT_EPOCH":26574,"BSTAR":-3.6773812e-5,"MEAN_MOTION_DOT":-8.29e-6,"MEAN_MOTION_DDOT":0}]
